{
  "type": "FeatureCollection",
  "features": [
    {
      "type": "Feature",
      "properties": {
        "norad_id": 40069,
        "name": "METEOR-M 2",
        "group": "weather",
        "lat": -32.332462033470954,
        "lon": 132.7199534615318,
        "alt_km": 823.4916710064899,
        "timestamp": "2025-12-06T07:31:39.887664+00:00",
        "meta_object_name": "METEOR-M 2",
        "meta_object_id": "2014-037A",
        "meta_epoch": "2025-12-05T06:52:39.926208",
        "meta_mean_motion": 14.21382014,
        "meta_eccentricity": 0.00047507,
        "meta_inclination": 98.4895,
        "meta_ra_of_asc_node": 317.1572,
        "meta_arg_of_pericenter": 234.2548,
        "meta_mean_anomaly": 125.8189,
        "meta_ephemeris_type": 0,
        "meta_classification_type": "U",
        "meta_norad_cat_id": 40069,
        "meta_element_set_no": 999,
        "meta_rev_at_epoch": 59177,
        "meta_bstar": 0.00014539297,
        "meta_mean_motion_dot": 2.76e-06,
        "meta_mean_motion_ddot": 0,
        "tle_line1": "1 40069U 14037A   25339.28657322  .00000276  00000+0  14539-3 0  9990",
        "tle_line2": "2 40069  98.4895 317.1572 0004750 234.2548 125.8189 14.21382014591773"
      },
      "geometry": {
        "type": "Point",
        "coordinates": [
          132.7199534615318,
          -32.332462033470954
        ]
      }
    },
    {
      "type": "Feature",
      "properties": {
        "norad_id": 40267,
        "name": "HIMAWARI-8",
        "group": "weather",
        "lat": -0.02009261770910655,
        "lon": -31.059139907195867,
        "alt_km": 35782.2498407686,
        "timestamp": "2025-12-06T07:31:39.887676+00:00",
        "meta_object_name": "HIMAWARI-8",
        "meta_object_id": "2014-060A",
        "meta_epoch": "2025-12-05T06:22:38.609760",
        "meta_mean_motion": 1.00270051,
        "meta_eccentricity": 0.00013758,
        "meta_inclination": 0.0469,
        "meta_ra_of_asc_node": 138.2605,
        "meta_arg_of_pericenter": 150.674,
        "meta_mean_anomaly": 21.7277,
        "meta_ephemeris_type": 0,
        "meta_classification_type": "U",
        "meta_norad_cat_id": 40267,
        "meta_element_set_no": 999,
        "meta_rev_at_epoch": 4081,
        "meta_bstar": 0,
        "meta_mean_motion_dot": -2.64e-06,
        "meta_mean_motion_ddot": 0,
        "tle_line1": "1 40267U 14060A   25339.26572465 -.00000264  00000+0  00000+0 0  9990",
        "tle_line2": "2 40267   0.0469 138.2605 0001375 150.6740  21.7277  1.00270051 40819"
      },
      "geometry": {
        "type": "Point",
        "coordinates": [
          -31.059139907195867,
          -0.02009261770910655
        ]
      }
    },
    {
      "type": "Feature",
      "properties": {
        "norad_id": 40367,
        "name": "FENGYUN 2G",
        "group": "weather",
        "lat": -2.8077954921431214,
        "lon": -72.15398729402025,
        "alt_km": 35775.37329420038,
        "timestamp": "2025-12-06T07:31:39.887689+00:00",
        "meta_object_name": "FENGYUN 2G",
        "meta_object_id": "2014-090A",
        "meta_epoch": "2025-12-04T19:20:10.600800",
        "meta_mean_motion": 1.00266882,
        "meta_eccentricity": 0.00031433,
        "meta_inclination": 5.1468,
        "meta_ra_of_asc_node": 75.1896,
        "meta_arg_of_pericenter": 194.5429,
        "meta_mean_anomaly": 193.8812,
        "meta_ephemeris_type": 0,
        "meta_classification_type": "U",
        "meta_norad_cat_id": 40367,
        "meta_element_set_no": 999,
        "meta_rev_at_epoch": 4005,
        "meta_bstar": 0,
        "meta_mean_motion_dot": -2.91e-06,
        "meta_mean_motion_ddot": 0,
        "tle_line1": "1 40367U 14090A   25338.80567825 -.00000291  00000+0  00000+0 0  9997",
        "tle_line2": "2 40367   5.1468  75.1896 0003143 194.5429 193.8812  1.00266882 40051"
      },
      "geometry": {
        "type": "Point",
        "coordinates": [
          -72.15398729402025,
          -2.8077954921431214
        ]
      }
    },
    {
      "type": "Feature",
      "properties": {
        "norad_id": 40732,
        "name": "METEOSAT-11 (MSG-4)",
        "group": "weather",
        "lat": 2.1928075411812857,
        "lon": -162.30081895624784,
        "alt_km": 35783.304780121565,
        "timestamp": "2025-12-06T07:31:39.887701+00:00",
        "meta_object_name": "METEOSAT-11 (MSG-4)",
        "meta_object_id": "2015-034A",
        "meta_epoch": "2025-12-05T03:28:10.109280",
        "meta_mean_motion": 1.00265125,
        "meta_eccentricity": 0.0001021,
        "meta_inclination": 2.7164,
        "meta_ra_of_asc_node": 72.024,
        "meta_arg_of_pericenter": 118.7476,
        "meta_mean_anomaly": 304.9041,
        "meta_ephemeris_type": 0,
        "meta_classification_type": "U",
        "meta_norad_cat_id": 40732,
        "meta_element_set_no": 999,
        "meta_rev_at_epoch": 527,
        "meta_bstar": 0,
        "meta_mean_motion_dot": 7.3e-07,
        "meta_mean_motion_ddot": 0,
        "tle_line1": "1 40732U 15034A   25339.14456145  .00000073  00000+0  00000+0 0  9999",
        "tle_line2": "2 40732   2.7164  72.0240 0001021 118.7476 304.9041  1.00265125  5278"
      },
      "geometry": {
        "type": "Point",
        "coordinates": [
          -162.30081895624784,
          2.1928075411812857
        ]
      }
    },
    {
      "type": "Feature",
      "properties": {
        "norad_id": 41105,
        "name": "ELEKTRO-L 2",
        "group": "weather",
        "lat": 6.0952957064691,
        "lon": 173.767644883403,
        "alt_km": 35787.27422376676,
        "timestamp": "2025-12-06T07:31:39.887713+00:00",
        "meta_object_name": "ELEKTRO-L 2",
        "meta_object_id": "2015-074A",
        "meta_epoch": "2025-12-05T02:13:38.625024",
        "meta_mean_motion": 1.00271424,
        "meta_eccentricity": 0.00041676,
        "meta_inclination": 6.2057,
        "meta_ra_of_asc_node": 72.9172,
        "meta_arg_of_pericenter": 196.9759,
        "meta_mean_anomaly": 183.1549,
        "meta_ephemeris_type": 0,
        "meta_classification_type": "U",
        "meta_norad_cat_id": 41105,
        "meta_element_set_no": 999,
        "meta_rev_at_epoch": 3656,
        "meta_bstar": 0,
        "meta_mean_motion_dot": -1.09e-06,
        "meta_mean_motion_ddot": 0,
        "tle_line1": "1 41105U 15074A   25339.09280816 -.00000109  00000+0  00000+0 0  9993",
        "tle_line2": "2 41105   6.2057  72.9172 0004167 196.9759 183.1549  1.00271424 36567"
      },
      "geometry": {
        "type": "Point",
        "coordinates": [
          173.767644883403,
          6.0952957064691
        ]
      }
    },
    {
      "type": "Feature",
      "properties": {
        "norad_id": 41752,
        "name": "INSAT-3DR",
        "group": "weather",
        "lat": -0.01990394660861894,
        "lon": -97.74466890332945,
        "alt_km": 35725.547161800016,
        "timestamp": "2025-12-06T07:31:39.887725+00:00",
        "meta_object_name": "INSAT-3DR",
        "meta_object_id": "2016-054A",
        "meta_epoch": "2025-12-05T02:03:48.194208",
        "meta_mean_motion": 1.00269648,
        "meta_eccentricity": 0.00145385,
        "meta_inclination": 0.0727,
        "meta_ra_of_asc_node": 88.3639,
        "meta_arg_of_pericenter": 180.9555,
        "meta_mean_anomaly": 269.8024,
        "meta_ephemeris_type": 0,
        "meta_classification_type": "U",
        "meta_norad_cat_id": 41752,
        "meta_element_set_no": 999,
        "meta_rev_at_epoch": 3387,
        "meta_bstar": 0,
        "meta_mean_motion_dot": -6.4e-07,
        "meta_mean_motion_ddot": 0,
        "tle_line1": "1 41752U 16054A   25339.08597447 -.00000064  00000+0  00000+0 0  9990",
        "tle_line2": "2 41752   0.0727  88.3639 0014538 180.9555 269.8024  1.00269648 33876"
      },
      "geometry": {
        "type": "Point",
        "coordinates": [
          -97.74466890332945,
          -0.01990394660861894
        ]
      }
    },
    {
      "type": "Feature",
      "properties": {
        "norad_id": 41836,
        "name": "HIMAWARI-9",
        "group": "weather",
        "lat": -0.016541168153078885,
        "lon": -30.98590425348571,
        "alt_km": 35777.77075141842,
        "timestamp": "2025-12-06T07:31:39.887737+00:00",
        "meta_object_name": "HIMAWARI-9",
        "meta_object_id": "2016-064A",
        "meta_epoch": "2025-12-04T21:14:44.627136",
        "meta_mean_motion": 1.00270612,
        "meta_eccentricity": 0.0002351,
        "meta_inclination": 0.0193,
        "meta_ra_of_asc_node": 3.7066,
        "meta_arg_of_pericenter": 298.1265,
        "meta_mean_anomaly": 231.5502,
        "meta_ephemeris_type": 0,
        "meta_classification_type": "U",
        "meta_norad_cat_id": 41836,
        "meta_element_set_no": 999,
        "meta_rev_at_epoch": 3326,
        "meta_bstar": 0,
        "meta_mean_motion_dot": 0,
        "meta_mean_motion_ddot": 0,
        "tle_line1": "1 41836U 16064A   25338.88523874  .00000000  00000+0  00000+0 0  9993",
        "tle_line2": "2 41836   0.0193   3.7066 0002351 298.1265 231.5502  1.00270612 33264"
      },
      "geometry": {
        "type": "Point",
        "coordinates": [
          -30.98590425348571,
          -0.016541168153078885
        ]
      }
    }
  ]
}